CCSDS_OMM_VERS = 2.0
CREATION_DATE  = 
ORIGINATOR     = 

OBJECT_NAME    = LVM3 R/B
OBJECT_ID      = 2025-249A
CENTER_NAME    = EARTH
REF_FRAME      = TEME
TIME_SYSTEM    = UTC
MEAN_ELEMENT_THEORY = SGP/SGP4

EPOCH          = 2025-12-01T23:22:58.655136
MEAN_MOTION    = 3.14324392
ECCENTRICITY   = .6668498
INCLINATION    = 21.3496
RA_OF_ASC_NODE = 143.6271
ARG_OF_PERICENTER = 208.7099
MEAN_ANOMALY   = 87.5029

EPHEMERIS_TYPE = 0
CLASSIFICATION_TYPE = U
NORAD_CAT_ID   = 66310
ELEMENT_SET_NO = 999
REV_AT_EPOCH   = 94
BSTAR          = .1238E-2
MEAN_MOTION_DOT = .46343E-3
MEAN_MOTION_DDOT = -.66665E-6

CCSDS_OMM_VERS = 2.0
CREATION_DATE  = 
ORIGINATOR     = 

OBJECT_NAME    = CMS-03 (GSAT-7R)
OBJECT_ID      = 2025-249B
CENTER_NAME    = EARTH
REF_FRAME      = TEME
TIME_SYSTEM    = UTC
MEAN_ELEMENT_THEORY = SGP/SGP4

EPOCH          = 2025-12-02T07:22:54.326208
MEAN_MOTION    = 1.00268468
ECCENTRICITY   = .0003994
INCLINATION    = 0.1671
RA_OF_ASC_NODE = 272.0660
ARG_OF_PERICENTER = 195.6706
MEAN_ANOMALY   = 167.8830

EPHEMERIS_TYPE = 0
CLASSIFICATION_TYPE = U
NORAD_CAT_ID   = 66311
ELEMENT_SET_NO = 999
REV_AT_EPOCH   = 37
BSTAR          = 0
MEAN_MOTION_DOT = -.236E-5
MEAN_MOTION_DDOT = 0

CCSDS_OMM_VERS = 2.0
CREATION_DATE  = 
ORIGINATOR     = 

OBJECT_NAME    = YAOGAN-46
OBJECT_ID      = 2025-250A
CENTER_NAME    = EARTH
REF_FRAME      = TEME
TIME_SYSTEM    = UTC
MEAN_ELEMENT_THEORY = SGP/SGP4

EPOCH          = 2025-11-23T01:44:02.775840
MEAN_MOTION    = 5.35115916
ECCENTRICITY   = .00492374
INCLINATION    = 20.0335
RA_OF_ASC_NODE = 104.8243
ARG_OF_PERICENTER = 135.6954
MEAN_ANOMALY   = 224.7061

EPHEMERIS_TYPE = 0
CLASSIFICATION_TYPE = U
NORAD_CAT_ID   = 66313
ELEMENT_SET_NO = 999
REV_AT_EPOCH   = 114
BSTAR          = 0
MEAN_MOTION_DOT = -.7E-7
MEAN_MOTION_DDOT = 0

CCSDS_OMM_VERS = 2.0
CREATION_DATE  = 
ORIGINATOR     = 

OBJECT_NAME    = SENTINEL-1D
OBJECT_ID      = 2025-251A
CENTER_NAME    = EARTH
REF_FRAME      = TEME
TIME_SYSTEM    = UTC
MEAN_ELEMENT_THEORY = SGP/SGP4

EPOCH          = 2025-12-02T10:32:58.403040
MEAN_MOTION    = 14.59910090
ECCENTRICITY   = .0002584
INCLINATION    = 98.1924
RA_OF_ASC_NODE = 341.6058
ARG_OF_PERICENTER = 155.6832
MEAN_ANOMALY   = 204.4491

EPHEMERIS_TYPE = 0
CLASSIFICATION_TYPE = U
NORAD_CAT_ID   = 66315
ELEMENT_SET_NO = 999
REV_AT_EPOCH   = 403
BSTAR          = .74229E-4
MEAN_MOTION_DOT = .309E-5
MEAN_MOTION_DDOT = 0

CCSDS_OMM_VERS = 2.0
CREATION_DATE  = 
ORIGINATOR     = 

OBJECT_NAME    = QPS-SAR-14 (YACHIHOKO-I)
OBJECT_ID      = 2025-252A
CENTER_NAME    = EARTH
REF_FRAME      = TEME
TIME_SYSTEM    = UTC
MEAN_ELEMENT_THEORY = SGP/SGP4

EPOCH          = 2025-12-01T22:22:08.570496
MEAN_MOTION    = 14.97516948
ECCENTRICITY   = .00069195
INCLINATION    = 42.0030
RA_OF_ASC_NODE = 134.6343
ARG_OF_PERICENTER = 75.2493
MEAN_ANOMALY   = 284.9098

EPHEMERIS_TYPE = 0
CLASSIFICATION_TYPE = U
NORAD_CAT_ID   = 66316
ELEMENT_SET_NO = 999
REV_AT_EPOCH   = 391
BSTAR          = .59360417E-3
MEAN_MOTION_DOT = .6864E-4
MEAN_MOTION_DDOT = 0

CCSDS_OMM_VERS = 2.0
CREATION_DATE  = 
ORIGINATOR     = 

OBJECT_NAME    = STARLINK-35442
OBJECT_ID      = 2025-253A
CENTER_NAME    = EARTH
REF_FRAME      = TEME
TIME_SYSTEM    = UTC
MEAN_ELEMENT_THEORY = SGP/SGP4

EPOCH          = 2025-12-02T12:00:05.998752
MEAN_MOTION    = 15.40646446
ECCENTRICITY   = .0001205
INCLINATION    = 43.0009
RA_OF_ASC_NODE = 44.8849
ARG_OF_PERICENTER = 294.5991
MEAN_ANOMALY   = 303.9764

EPHEMERIS_TYPE = 0
CLASSIFICATION_TYPE = U
NORAD_CAT_ID   = 66319
ELEMENT_SET_NO = 999
REV_AT_EPOCH   = 538
BSTAR          = .11276E-2
MEAN_MOTION_DOT = .47005E-3
MEAN_MOTION_DDOT = 0

CCSDS_OMM_VERS = 2.0
CREATION_DATE  = 
ORIGINATOR     = 

OBJECT_NAME    = STARLINK-34616
OBJECT_ID      = 2025-253B
CENTER_NAME    = EARTH
REF_FRAME      = TEME
TIME_SYSTEM    = UTC
MEAN_ELEMENT_THEORY = SGP/SGP4

EPOCH          = 2025-12-02T12:04:03.392256
MEAN_MOTION    = 15.50597120
ECCENTRICITY   = .000162
INCLINATION    = 43.0005
RA_OF_ASC_NODE = 44.6062
ARG_OF_PERICENTER = 274.0056
MEAN_ANOMALY   = 86.0619

EPHEMERIS_TYPE = 0
CLASSIFICATION_TYPE = U
NORAD_CAT_ID   = 66320
ELEMENT_SET_NO = 999
REV_AT_EPOCH   = 542
BSTAR          = .18492E-2
MEAN_MOTION_DOT = .109746E-2
MEAN_MOTION_DDOT = 0

CCSDS_OMM_VERS = 2.0
CREATION_DATE  = 
ORIGINATOR     = 

OBJECT_NAME    = STARLINK-34615
OBJECT_ID      = 2025-253C
CENTER_NAME    = EARTH
REF_FRAME      = TEME
TIME_SYSTEM    = UTC
MEAN_ELEMENT_THEORY = SGP/SGP4

EPOCH          = 2025-12-01T13:21:43.206912
MEAN_MOTION    = 15.63263158
ECCENTRICITY   = .00023769
INCLINATION    = 42.9996
RA_OF_ASC_NODE = 49.5325
ARG_OF_PERICENTER = 5.4675
MEAN_ANOMALY   = 354.6216

EPHEMERIS_TYPE = 0
CLASSIFICATION_TYPE = U
NORAD_CAT_ID   = 66321
ELEMENT_SET_NO = 999
REV_AT_EPOCH   = 520
BSTAR          = .16579406E-2
MEAN_MOTION_DOT = .159038E-2
MEAN_MOTION_DDOT = 0

CCSDS_OMM_VERS = 2.0
CREATION_DATE  = 
ORIGINATOR     = 

OBJECT_NAME    = STARLINK-35292
OBJECT_ID      = 2025-253D
CENTER_NAME    = EARTH
REF_FRAME      = TEME
TIME_SYSTEM    = UTC
MEAN_ELEMENT_THEORY = SGP/SGP4

EPOCH          = 2025-12-02T06:00:02.999808
MEAN_MOTION    = 15.40655905
ECCENTRICITY   = .00016913
INCLINATION    = 43.0008
RA_OF_ASC_NODE = 46.2316
ARG_OF_PERICENTER = 277.9556
MEAN_ANOMALY   = 49.3405

EPHEMERIS_TYPE = 0
CLASSIFICATION_TYPE = U
NORAD_CAT_ID   = 66322
ELEMENT_SET_NO = 999
REV_AT_EPOCH   = 524
BSTAR          = .16460912E-2
MEAN_MOTION_DOT = .68981E-3
MEAN_MOTION_DDOT = 0

CCSDS_OMM_VERS = 2.0
CREATION_DATE  = 
ORIGINATOR     = 

OBJECT_NAME    = STARLINK-35309
OBJECT_ID      = 2025-253E
CENTER_NAME    = EARTH
REF_FRAME      = TEME
TIME_SYSTEM    = UTC
MEAN_ELEMENT_THEORY = SGP/SGP4

EPOCH          = 2025-12-02T07:21:49.754304
MEAN_MOTION    = 15.50620272
ECCENTRICITY   = .0001279
INCLINATION    = 43.0004
RA_OF_ASC_NODE = 45.7150
ARG_OF_PERICENTER = 253.4797
MEAN_ANOMALY   = 106.5923

EPHEMERIS_TYPE = 0
CLASSIFICATION_TYPE = U
NORAD_CAT_ID   = 66323
ELEMENT_SET_NO = 999
REV_AT_EPOCH   = 531
BSTAR          = .83711E-3
MEAN_MOTION_DOT = .49149E-3
MEAN_MOTION_DDOT = 0

CCSDS_OMM_VERS = 2.0
CREATION_DATE  = 
ORIGINATOR     = 

OBJECT_NAME    = STARLINK-35506
OBJECT_ID      = 2025-253F
CENTER_NAME    = EARTH
REF_FRAME      = TEME
TIME_SYSTEM    = UTC
MEAN_ELEMENT_THEORY = SGP/SGP4

EPOCH          = 2025-12-02T05:50:53.634048
MEAN_MOTION    = 15.50908788
ECCENTRICITY   = .0001609
INCLINATION    = 43.0002
RA_OF_ASC_NODE = 46.1022
ARG_OF_PERICENTER = 289.6052
MEAN_ANOMALY   = 70.4635

EPHEMERIS_TYPE = 0
CLASSIFICATION_TYPE = U
NORAD_CAT_ID   = 66324
ELEMENT_SET_NO = 999
REV_AT_EPOCH   = 530
BSTAR          = .25528E-2
MEAN_MOTION_DOT = .154211E-2
MEAN_MOTION_DDOT = 0

