LVM3 R/B                
1 66310U 25249A   25335.97428999  .00046343 -66665-6  12380-2 0  9995
2 66310  21.3496 143.6271 6668498 208.7099  87.5029  3.14324392   944
CMS-03 (GSAT-7R)        
1 66311U 25249B   25336.30757322 -.00000236  00000+0  00000+0 0  9997
2 66311   0.1671 272.0660 0003994 195.6706 167.8830  1.00268468   374
YAOGAN-46               
1 66313U 25250A   25327.07225435 -.00000007  00000+0  00000+0 0  9996
2 66313  20.0335 104.8243 0049237 135.6954 224.7061  5.35115916  1148
SENTINEL-1D             
1 66315U 25251A   25336.43956485  .00000309  00000+0  74229-4 0  9998
2 66315  98.1924 341.6058 0002584 155.6832 204.4491 14.59910090  4031
QPS-SAR-14 (YACHIHOKO-I)
1 66316U 25252A   25335.93204364  .00006864  00000+0  59360-3 0  9996
2 66316  42.0030 134.6343 0006919  75.2493 284.9098 14.97516948  3919
STARLINK-35442          
1 66319U 25253A   25336.50006943  .00047005  00000+0  11276-2 0  9992
2 66319  43.0009  44.8849 0001205 294.5991 303.9764 15.40646446  5385
STARLINK-34616          
1 66320U 25253B   25336.50281704  .00109746  00000+0  18492-2 0  9992
2 66320  43.0005  44.6062 0001620 274.0056  86.0619 15.50597120  5422
STARLINK-34615          
1 66321U 25253C   25335.55675008  .00159038  00000+0  16579-2 0  9994
2 66321  42.9996  49.5325 0002376   5.4675 354.6216 15.63263158  5206
STARLINK-35292          
1 66322U 25253D   25336.25003472  .00068981  00000+0  16461-2 0  9999
2 66322  43.0008  46.2316 0001691 277.9556  49.3405 15.40655905  5242
STARLINK-35309          
1 66323U 25253E   25336.30682586  .00049149  00000+0  83711-3 0  9993
2 66323  43.0004  45.7150 0001279 253.4797 106.5923 15.50620272  5316
STARLINK-35506          
1 66324U 25253F   25336.24367632  .00154211  00000+0  25528-2 0  9997
2 66324  43.0002  46.1022 0001609 289.6052  70.4635 15.50908788  5309
